FENGYUN 1C DEB          
1 30171U 99025UC  17345.18765495  .00000272  00000-0  19787-3 0  9998
2 30171  98.4521  47.5173 0189784 145.1720 216.2036 13.94962676555061
